start=new Date('2021-10-04T00:00:00.000Z').valueOf();
sats=[{"TLE_LINE2":"2 46154  53.0563   9.9650 0001260  97.7942 262.3190 15.06391016 62340","LAUNCH_DATE":"2020-08-18","MEAN_MOTION_DOT":"-0.00000727","MEAN_ELEMENT_THEORY":"SGP4","PERIAPSIS":"546.368","MEAN_MOTION_DDOT":"0.0000000000000","BSTAR":"-0.00002995000000","INCLINATION":"53.0563","TIME_SYSTEM":"UTC","CLASSIFICATION_TYPE":"U","GP_ID":"186142993","ARG_OF_PERICENTER":"97.7942","APOAPSIS":"548.114","RA_OF_ASC_NODE":"9.9650","DECAY_DATE":null,"MEAN_ANOMALY":"262.3190","SEMIMAJOR_AXIS":"6925.376","MEAN_MOTION":"15.06391016","FILE":"3143202","TLE_LINE1":"1 46154U 20057AP  21276.72135241 -.00000727  00000-0 -29950-4 0  9994","ELEMENT_SET_NO":"999","REF_FRAME":"TEME","EPOCH":"2021-10-03T17:18:44.848224","OBJECT_ID":"2020-057AP","RCS_SIZE":"LARGE","REV_AT_EPOCH":"6234","EPHEMERIS_TYPE":"0","COUNTRY_CODE":"US","OBJECT_NAME":"STARLINK-1642","ECCENTRICITY":"0.00012600","NORAD_CAT_ID":"46154","OBJECT_TYPE":"PAYLOAD","PERIOD":"95.593","SITE":"AFETR","CENTER_NAME":"EARTH"},{"RA_OF_ASC_NODE":"339.2633","APOAPSIS":"548.089","ARG_OF_PERICENTER":"84.7248","GP_ID":"186141240","DECAY_DATE":null,"PERIAPSIS":"546.367","MEAN_ELEMENT_THEORY":"SGP4","LAUNCH_DATE":"2020-08-18","TLE_LINE2":"2 46155  53.0546 339.2633 0001243  84.7248 275.3883 15.06395348 64020","MEAN_MOTION_DOT":"0.00003082","CLASSIFICATION_TYPE":"U","INCLINATION":"53.0546","TIME_SYSTEM":"UTC","MEAN_MOTION_DDOT":"0.0000000000000","BSTAR":"0.00022572000000","COUNTRY_CODE":"US","EPHEMERIS_TYPE":"0","OBJECT_NAME":"STARLINK-1667","REV_AT_EPOCH":"6402","RCS_SIZE":"LARGE","PERIOD":"95.592","SITE":"AFETR","CENTER_NAME":"EARTH","NORAD_CAT_ID":"46155","OBJECT_TYPE":"PAYLOAD","ECCENTRICITY":"0.00012430","TLE_LINE1":"1 46155U 20057AQ  21276.87893434  .00003082  00000-0  22572-3 0  9993","FILE":"3143202","SEMIMAJOR_AXIS":"6925.363","MEAN_MOTION":"15.06395348","MEAN_ANOMALY":"275.3883","EPOCH":"2021-10-03T21:05:39.926976","OBJECT_ID":"2020-057AQ","REF_FRAME":"TEME","ELEMENT_SET_NO":"999"},{"PERIOD":"95.593","SITE":"AFETR","CENTER_NAME":"EARTH","NORAD_CAT_ID":"46156","OBJECT_TYPE":"PAYLOAD","ECCENTRICITY":"0.00012690","EPHEMERIS_TYPE":"0","COUNTRY_CODE":"US","OBJECT_NAME":"STARLINK-1545","REV_AT_EPOCH":"6371","RCS_SIZE":"LARGE","EPOCH":"2021-10-03T14:30:13.492512","OBJECT_ID":"2020-057AR","REF_FRAME":"TEME","ELEMENT_SET_NO":"999","FILE":"3143202","TLE_LINE1":"1 46156U 20057AR  21276.60432283 -.00001063  00000-0 -52523-4 0  9995","SEMIMAJOR_AXIS":"6925.382","MEAN_MOTION":"15.06389109","MEAN_ANOMALY":"265.9138","DECAY_DATE":null,"APOAPSIS":"548.126","RA_OF_ASC_NODE":"0.4964","ARG_OF_PERICENTER":"94.1996","GP_ID":"186141991","CLASSIFICATION_TYPE":"U","INCLINATION":"53.0550","TIME_SYSTEM":"UTC","MEAN_MOTION_DDOT":"0.0000000000000","BSTAR":"-0.00005252300000","PERIAPSIS":"546.368","MEAN_ELEMENT_THEORY":"SGP4","LAUNCH_DATE":"2020-08-18","TLE_LINE2":"2 46156  53.0550   0.4964 0001269  94.1996 265.9138 15.06389109 63714","MEAN_MOTION_DOT":"-0.00001063"},{"DECAY_DATE":null,"GP_ID":"186142256","APOAPSIS":"548.205","RA_OF_ASC_NODE":"340.5431","ARG_OF_PERICENTER":"96.9386","TIME_SYSTEM":"UTC","INCLINATION":"53.0550","BSTAR":"-0.00008377200000","MEAN_MOTION_DDOT":"0.0000000000000","CLASSIFICATION_TYPE":"U","MEAN_MOTION_DOT":"-0.00001529","LAUNCH_DATE":"2020-08-18","TLE_LINE2":"2 46157  53.0550 340.5431 0001414  96.9386 263.1764 15.06396122 62747","PERIAPSIS":"546.246","MEAN_ELEMENT_THEORY":"SGP4","ECCENTRICITY":"0.00014140","CENTER_NAME":"EARTH","SITE":"AFETR","PERIOD":"95.592","OBJECT_TYPE":"PAYLOAD","NORAD_CAT_ID":"46157","REV_AT_EPOCH":"6274","RCS_SIZE":"LARGE","OBJECT_NAME":"STARLINK-1587","EPHEMERIS_TYPE":"0","COUNTRY_CODE":"US","REF_FRAME":"TEME","ELEMENT_SET_NO":"999","OBJECT_ID":"2020-057AS","EPOCH":"2021-10-03T14:11:38.054688","MEAN_ANOMALY":"263.1764","FILE":"3143202","TLE_LINE1":"1 46157U 20057AS  21276.59141267 -.00001529  00000-0 -83772-4 0  9990","MEAN_MOTION":"15.06396122","SEMIMAJOR_AXIS":"6925.360"},{"NORAD_CAT_ID":"46158","OBJECT_TYPE":"PAYLOAD","PERIOD":"95.593","CENTER_NAME":"EARTH","SITE":"AFETR","ECCENTRICITY":"0.00013020","EPHEMERIS_TYPE":"0","COUNTRY_CODE":"US","OBJECT_NAME":"STARLINK-1589","RCS_SIZE":"LARGE","REV_AT_EPOCH":"6400","EPOCH":"2021-10-03T14:06:19.946304","OBJECT_ID":"2020-057AT","ELEMENT_SET_NO":"999","REF_FRAME":"TEME","SEMIMAJOR_AXIS":"6925.371","MEAN_MOTION":"15.06392822","TLE_LINE1":"1 46158U 20057AT  21276.58773086 -.00001677  00000-0 -93706-4 0  9992","FILE":"3143202","MEAN_ANOMALY":"263.5233","DECAY_DATE":null,"ARG_OF_PERICENTER":"96.5904","APOAPSIS":"548.137","RA_OF_ASC_NODE":"340.5654","GP_ID":"186142507","CLASSIFICATION_TYPE":"U","BSTAR":"-0.00009370600000","MEAN_MOTION_DDOT":"0.0000000000000","INCLINATION":"53.0565","TIME_SYSTEM":"UTC","MEAN_ELEMENT_THEORY":"SGP4","PERIAPSIS":"546.334","LAUNCH_DATE":"2020-08-18","TLE_LINE2":"2 46158  53.0565 340.5654 0001302  96.5904 263.5233 15.06392822 64008","MEAN_MOTION_DOT":"-0.00001677"},{"CENTER_NAME":"EARTH","SITE":"AFETR","PERIOD":"95.593","OBJECT_TYPE":"PAYLOAD","NORAD_CAT_ID":"46159","ECCENTRICITY":"0.00011260","OBJECT_NAME":"STARLINK-1595","COUNTRY_CODE":"US","EPHEMERIS_TYPE":"0","REV_AT_EPOCH":"6345","RCS_SIZE":"LARGE","OBJECT_ID":"2020-057AU","EPOCH":"2021-10-03T16:40:15.600864","REF_FRAME":"TEME","ELEMENT_SET_NO":"999","FILE":"3143202","TLE_LINE1":"1 46159U 20057AU  21276.69462501  .00000278  00000-0  37535-4 0  9994","MEAN_MOTION":"15.06393759","SEMIMAJOR_AXIS":"6925.368","MEAN_ANOMALY":"251.8748","DECAY_DATE":null,"RA_OF_ASC_NODE":"20.0924","APOAPSIS":"548.012","ARG_OF_PERICENTER":"108.2363","GP_ID":"186141255","CLASSIFICATION_TYPE":"U","TIME_SYSTEM":"UTC","INCLINATION":"53.0558","BSTAR":"0.00003753500000","MEAN_MOTION_DDOT":"0.0000000000000","PERIAPSIS":"546.453","MEAN_ELEMENT_THEORY":"SGP4","MEAN_MOTION_DOT":"0.00000278","LAUNCH_DATE":"2020-08-18","TLE_LINE2":"2 46159  53.0558  20.0924 0001126 108.2363 251.8748 15.06393759 63454"},{"DECAY_DATE":null,"GP_ID":"186141505","RA_OF_ASC_NODE":"0.4233","APOAPSIS":"548.047","ARG_OF_PERICENTER":"89.7311","TIME_SYSTEM":"UTC","INCLINATION":"53.0556","MEAN_MOTION_DDOT":"0.0000000000000","BSTAR":"-0.00007010800000","CLASSIFICATION_TYPE":"U","MEAN_MOTION_DOT":"-0.00001326","LAUNCH_DATE":"2020-08-18","TLE_LINE2":"2 46160  53.0556   0.4233 0001229  89.7311 270.3819 15.06405669 63717","PERIAPSIS":"546.345","MEAN_ELEMENT_THEORY":"SGP4","ECCENTRICITY":"0.00012290","CENTER_NAME":"EARTH","SITE":"AFETR","PERIOD":"95.592","OBJECT_TYPE":"PAYLOAD","NORAD_CAT_ID":"46160","REV_AT_EPOCH":"6371","RCS_SIZE":"LARGE","OBJECT_NAME":"STARLINK-1598","COUNTRY_CODE":"US","EPHEMERIS_TYPE":"0","REF_FRAME":"TEME","ELEMENT_SET_NO":"999","OBJECT_ID":"2020-057AV","EPOCH":"2021-10-03T14:51:27.275616","MEAN_ANOMALY":"270.3819","FILE":"3143202","TLE_LINE1":"1 46160U 20057AV  21276.61906569 -.00001326  00000-0 -70108-4 0  9995","MEAN_MOTION":"15.06405669","SEMIMAJOR_AXIS":"6925.331"},{"FILE":"3143202","TLE_LINE1":"1 46161U 20057AW  21276.66330213 -.00001010  00000-0 -48939-4 0  9995","MEAN_MOTION":"15.06386529","SEMIMAJOR_AXIS":"6925.390","MEAN_ANOMALY":"261.5939","OBJECT_ID":"2020-057AW","EPOCH":"2021-10-03T15:55:09.304032","REF_FRAME":"TEME","ELEMENT_SET_NO":"999","OBJECT_NAME":"STARLINK-1600","EPHEMERIS_TYPE":"0","COUNTRY_CODE":"US","REV_AT_EPOCH":"6372","RCS_SIZE":"LARGE","SITE":"AFETR","CENTER_NAME":"EARTH","PERIOD":"95.593","OBJECT_TYPE":"PAYLOAD","NORAD_CAT_ID":"46161","ECCENTRICITY":"0.00010970","PERIAPSIS":"546.495","MEAN_ELEMENT_THEORY":"SGP4","MEAN_MOTION_DOT":"-0.00001010","LAUNCH_DATE":"2020-08-18","TLE_LINE2":"2 46161  53.0555   0.2238 0001097  98.5174 261.5939 15.06386529 63727","CLASSIFICATION_TYPE":"U","TIME_SYSTEM":"UTC","INCLINATION":"53.0555","BSTAR":"-0.00004893900000","MEAN_MOTION_DDOT":"0.0000000000000","RA_OF_ASC_NODE":"0.2238","APOAPSIS":"548.015","ARG_OF_PERICENTER":"98.5174","GP_ID":"186142242","DECAY_DATE":null},{"GP_ID":"186142994","ARG_OF_PERICENTER":"89.3553","APOAPSIS":"547.994","RA_OF_ASC_NODE":"0.5031","DECAY_DATE":null,"LAUNCH_DATE":"2020-08-18","TLE_LINE2":"2 46162  53.0551   0.5031 0001115  89.3553 270.7564 15.06397167 63724","MEAN_MOTION_DOT":"-0.00001586","MEAN_ELEMENT_THEORY":"SGP4","PERIAPSIS":"546.450","BSTAR":"-0.00008761500000","MEAN_MOTION_DDOT":"0.0000000000000","INCLINATION":"53.0551","TIME_SYSTEM":"UTC","CLASSIFICATION_TYPE":"U","RCS_SIZE":"LARGE","REV_AT_EPOCH":"6372","EPHEMERIS_TYPE":"0","COUNTRY_CODE":"US","OBJECT_NAME":"STARLINK-1603","ECCENTRICITY":"0.00011150","NORAD_CAT_ID":"46162","OBJECT_TYPE":"PAYLOAD","PERIOD":"95.592","CENTER_NAME":"EARTH","SITE":"AFETR","MEAN_ANOMALY":"270.7564","SEMIMAJOR_AXIS":"6925.357","MEAN_MOTION":"15.06397167","FILE":"3143202","TLE_LINE1":"1 46162U 20057AX  21276.60063230 -.00001586  00000-0 -87615-4 0  9994","ELEMENT_SET_NO":"999","REF_FRAME":"TEME","EPOCH":"2021-10-03T14:24:54.630720","OBJECT_ID":"2020-057AX"},{"ECCENTRICITY":"0.00012070","CENTER_NAME":"EARTH","SITE":"AFETR","PERIOD":"95.593","OBJECT_TYPE":"PAYLOAD","NORAD_CAT_ID":"46163","REV_AT_EPOCH":"6272","RCS_SIZE":"LARGE","OBJECT_NAME":"STARLINK-1610","EPHEMERIS_TYPE":"0","COUNTRY_CODE":"US","REF_FRAME":"TEME","ELEMENT_SET_NO":"999","OBJECT_ID":"2020-057AY","EPOCH":"2021-10-03T11:11:10.716000","MEAN_ANOMALY":"261.1977","FILE":"3142499","TLE_LINE1":"1 46163U 20057AY  21276.46609625 -.00000713  00000-0 -28991-4 0  9996","MEAN_MOTION":"15.06391910","SEMIMAJOR_AXIS":"6925.373","DECAY_DATE":null,"GP_ID":"186101234","RA_OF_ASC_NODE":"341.1152","APOAPSIS":"548.074","ARG_OF_PERICENTER":"98.9148","TIME_SYSTEM":"UTC","INCLINATION":"53.0570","BSTAR":"-0.00002899100000","MEAN_MOTION_DDOT":"0.0000000000000","CLASSIFICATION_TYPE":"U","MEAN_MOTION_DOT":"-0.00000713","LAUNCH_DATE":"2020-08-18","TLE_LINE2":"2 46163  53.0570 341.1152 0001207  98.9148 261.1977 15.06391910 62723","PERIAPSIS":"546.402","MEAN_ELEMENT_THEORY":"SGP4"}];
